STARS-AO
1 43679U 18084J   25166.44497834  .00004588  00000-0  27670-3 0  9993
2 43679  98.0750 353.7382 0002156  12.4907 347.6375 15.11297210361978
KAIDUN-1
1 41915U 17002C   25167.18915410  .00047476  00000-0  53614-3 0  9990
2 41915  97.1533 196.1159 0002618  53.2508 306.8990 15.62349817467011
CAS-4B (ZHUHAI-1 02)
1 42759U 17034B   25166.79108935  .00061245  00000-0  61936-3 0  9990
2 42759  43.0070 284.8422 0021206 330.9181  29.0502 15.64159914443575
CAS-4A (ZHUHAI-1 01)
1 42761U 17034D   25166.75524230  .00059911  00000-0  57387-3 0  9991
2 42761  43.0107 282.1429 0022371 335.1891  24.7898 15.65491906443588
EAGLESAT-1
1 43018U 17073F   25166.67262305  .00049444  00000-0  87129-3 0  9990
2 43018  97.5386  60.6123 0087464  72.6118 288.4672 15.46014202411444
LUOJIA-1 01
1 43485U 18048B   25167.20729881  .00001634  00000-0  19670-3 0  9993
2 43485  97.8424 246.1139 0008147 237.5053 122.5375 14.85239798379832
DIWATA-2B (PO-101)
1 43678U 18084H   25167.13315803  .00001163  00000-0  10291-3 0  9991
2 43678  98.1037 343.5085 0007247 268.1538  91.8854 14.98360755361361
ESHAIL-2
1 43700U 18090A   25167.15301341  .00000156  00000-0  00000+0 0  9992
2 43700   0.0200   4.6304 0002290 118.5640 222.3515  1.00269625 24257
K2SAT
1 43761U 18099D   25166.85691839  .00002134  00000-0  15727-3 0  9992
2 43761  97.4688 215.5245 0013171 148.1494 212.0532 15.04296816356992
AISTECHSAT-2
1 43768U 18099L   25166.88675034  .00004970  00000-0  30566-3 0  9999
2 43768  97.4814 218.0374 0006738 118.3585 241.8325 15.10469564356890
SNUSAT-2
1 43782U 18099AA  25167.14679922  .00005663  00000-0  30862-3 0  9994
2 43782  97.4586 221.8579 0013558 127.5559 232.6907 15.14709409357492
ITASAT-1
1 43786U 18099AE  25167.09340285  .00005502  00000-0  31442-3 0  9996
2 43786  97.4554 221.2961 0014571 177.6264 182.5039 15.13010878357443
IRVINE02
1 43789U 18099AH  25166.60505488  .00023112  00000-0  61645-3 0  9998
2 43789  97.4646 234.6503 0010581 120.0641 240.1655 15.38093035357938
EAGLET-1
1 43790U 18099AJ  25166.58443573  .00003106  00000-0  19952-3 0  9998
2 43790  97.4749 220.7362 0012635 162.2620 197.9053 15.09101115356971
ESEO
1 43792U 18099AL  25167.06098274  .00001620  00000-0  12565-3 0  9990
2 43792  97.4490 214.3773 0014511 135.0764 225.1639 15.02648526356792
CSIM-FD
1 43793U 18099AM  25167.18188231  .00065405  00000-0  39483-3 0  9996
2 43793  97.4780 245.5894 0005411 172.8577 187.2767 15.77443233358685
HIBER-2
1 43774U 18099S   25166.62598419  .00023617  00000-0  61812-3 0  9996
2 43774  97.4878 235.8445 0007093 116.0356 244.1620 15.38702943358111
MINXSS-2
1 43758U 18099A   25166.62593699  .00011090  00000-0  43412-3 0  9991
2 43758  97.5008 232.6807 0013267 131.8302 228.4071 15.25904075357897
FOX-1CLIFF (AO-95)
1 43770U 18099N   25167.11175821  .00007831  00000-0  39511-3 0  9996
2 43770  97.4901 225.1253 0010844 181.1226 178.9985 15.17345020357540
MOVE-II
1 43780U 18099Y   25166.80606090  .00291305  00000-0  14998-2 0  9991
2 43780  97.4624 242.9316 0005433 199.5859 160.5200 15.80380731358785
CORVUS-BC4
1 43767U 18099K   25166.84884196  .00003245  00000-0  21225-3 0  9991
2 43767  97.4577 215.4141 0009343 171.2874 188.8518 15.08434499357107
CZ-4B R/B
1 43656U 18081B   25166.92757656  .00000080  00000-0  41817-4 0  9992
2 43656  99.3958  50.3547 0204418 241.2705 116.7800 14.31651399346898
COSMOS 2504 [i]
1 40555U 15020D   25167.21191049  .00000174  00000-0  57934-4 0  9999
2 40555  82.5161 154.0905 0608922 188.7476 170.2674 13.61041053500406
MERIDIAN-4
1 37398U 11018A   25165.43258071 -.00000235  00000-0 -27705-2 0  9995
2 37398  62.1128 133.3542 7359340 260.9342  17.2959  2.00543530103391
MERIDIAN-6
1 38995U 12063A   25165.73872104  .00000114  00000-0  00000-0 0  9993
2 38995  64.7508  45.9084 7242508 231.6117  38.4584  2.00717430 92136
MERIDIAN-7
1 40296U 14069A   25165.79508448  .00000215  00000-0  00000-0 0  9993
2 40296  63.4838 253.2369 6826666 272.4684  17.5782  2.00617854 77870
METOP-C
1 43689U 18087A   25167.12022206  .00000110  00000-0  70302-4 0  9998
2 43689  98.7151 227.3709 0002111 122.9528 237.1853 14.21488513342822
FENGYUN-3B
1 37214U 10059A   25167.25254841  .00000065  00000-0  57093-4 0  9993
2 37214  99.0121 205.7002 0022829 141.2100 291.0628 14.14731991755723
FENGYUN-3C
1 39260U 13052A   25167.22129515  .00000090  00000-0  67021-4 0  9998
2 39260  98.4543 153.8671 0014748   2.1547 357.9689 14.15629169606855
EWS-G1 (GOES-13)
1 29155U 06018A   25166.54663022 -.00000015  00000-0  00000-0 0  9992
2 29155   3.5773  80.9290 0060864 266.8012 321.4127  0.98793127 39622
FENGYUN-2H
1 43491U 18050A   25166.89554468 -.00000114  00000-0  00000-0 0  9991
2 43491   2.0863  83.4583 0000906  92.5550 129.7829  1.00267364 25761
FENGYUN-2G
1 40367U 14090A   25166.90343156 -.00000292  00000-0  00000+0 0  9998
2 40367   4.7102  77.2868 0003678 141.4260 110.6115  1.00273998 38360
INMARSAT 4-F1
1 28628U 05009A   25166.89767483  .00000043  00000-0  00000+0 0  9998
2 28628   4.6929  42.2467 0002509  52.2757 311.1829  1.00271127 73991
INMARSAT 4-F2
1 28899U 05044A   25166.89081126 -.00000250  00000-0  00000-0 0  9992
2 28899   4.6197  43.4752 0002344  49.0323 276.0898  1.00270901 71844
INMARSAT 4-F3
1 33278U 08039A   25165.98622314 -.00000128  00000-0  00000-0 0  9999
2 33278   3.9879  29.9184 0002577  58.4237  72.2003  1.00270781 42864
INMARSAT 4A-F4 (ALPHASAT)
1 39215U 13038A   25166.51027965  .00000145  00000-0  00000-0 0  9990
2 39215   2.9420   4.3970 0001915  86.5264  21.6559  1.00272616 40343
ASTROCAST
1 43798U 18099AS  25167.13345589  .00013369  00000-0  47868-3 0  9995
2 43798  97.4831 234.6895 0009282  94.4758 265.7542 15.28850727358170
JY1SAT (JO-97)
1 43803U 18099AX  25166.90056614  .00009141  00000-0  41506-3 0  9990
2 43803  97.4651 225.9203 0009080 119.7599 240.4541 15.20973998357731
SUOMI-100
1 43804U 18099AY  25166.59571033  .00006572  00000-0  32105-3 0  9993
2 43804  97.4715 224.8977 0013899 124.5418 235.7130 15.18504327357617
GEO-KOMPSAT-2A
1 43823U 18100A   25166.86373782 -.00000332  00000-0  00000-0 0  9993
2 43823   0.0534 134.1520 0002378 314.6346 254.8090  1.00270708 23959
UWE-4
1 43880U 18111E   25166.70425401  .00010344  00000-0  40349-3 0  9993
2 43880  97.5898  79.6693 0011819 179.3074 180.8182 15.26065692354565
D-STAR ONE SPARROW
1 43881U 18111F   25166.75027185  .00014162  00000-0  46943-3 0  9994
2 43881  97.6100  84.1818 0005944 197.4669 162.6368 15.31375581354736
METEOR M2-2
1 44387U 19038A   25167.17187961  .00000079  00000-0  54006-4 0  9993
2 44387  98.8744 144.9176 0001643  37.6378 322.4915 14.24210340309197
MOMENTUS-X1
1 44408U 19038Y   25166.57326774  .00013773  00000-0  30321-3 0  9995
2 44408  97.7174 179.7903 0010462 267.5471  92.4578 15.44031642329636
MERIDIAN-8
1 44453U 19046A   25165.35895110  .00000217  00000-0  00000-0 0  9991
2 44453  62.8331  96.4696 6930751 273.8632  16.1547  2.00611091 42962
TAURUS-1
1 44530U 19059C   25167.14264436  .00004673  00000-0  86313-3 0  9995
2 44530  98.6083 306.8471 0009127  24.5348 335.6287 14.65922577304904
GAOFEN 12-01
1 44819U 19082A   25167.16855003  .00000385  00000-0  56995-4 0  9999
2 44819  97.8128 178.1264 0004090 107.0143 253.1517 14.80405831299931
DUCHIFAT-3
1 44854U 19089C   25166.75654745  .00034552  00000-0  66240-3 0  9995
2 44854  36.9438 315.9115 0004288 356.3922   3.6804 15.47084950303973
CAS-6 (TO-108)
1 44881U 19093C   25167.16058810  .00000799  00000-0  98393-4 0  9998
2 44881  97.7924 242.6727 0013175 204.4493 155.6099 14.85614122297050
ELEKTRO-L3
1 44903U 19095A   25166.89534501 -.00000085  00000-0  00000+0 0  9992
2 44903   0.0705 168.0745 0000671 308.8125 185.9166  1.00271361 20016
DOSAAF-85 (RS-44)
1 44909U 19096E   25166.88640262  .00000022  00000-0  51180-4 0  9990
2 44909  82.5212 223.0884 0216259 280.9034  76.7802 12.79741214255499
MERIDIAN-9
1 45254U 20015A   25166.57993325 -.00000126  00000-0  00000+0 0  9990
2 45254  65.2784 358.9920 6941830 283.8165  12.9095  2.00605162 38957
ION-MK01
1 46274U 20061C   25166.74149577  .00018479  00000-0  31364-3 0  9995
2 46274  97.2424 234.5002 0002532 161.0080 199.1267 15.51531781265934
UPMSAT-2
1 46276U 20061E   25166.17087962  .00054763  00000-0  46482-3 0  9996
2 46276  97.2428 240.7429 0002155 162.0574 198.0765 15.69492032266343
DEKART
1 46493U 20068H   25167.21414304  .00006980  00000-0  26356-3 0  9990
2 46493  97.8580 148.5960 0012879 129.5863 230.6514 15.27287663259733
NORBY
1 46494U 20068J   25166.88644084  .00008279  00000-0  27117-3 0  9992
2 46494  97.8558 150.8962 0011739 121.8525 238.3860 15.31879094259853
SALSAT (TUBSAT 22)
1 46495U 20068K   25166.92421972  .00005175  00000-0  22409-3 0  9998
2 46495  97.8610 145.2459 0012663 134.3524 225.8751 15.22823515259494
NETSAT-4
1 46504U 20068U   25166.49253063  .00009734  00000-0  33203-3 0  9994
2 46504  97.8456 144.6551 0007517 166.8998 193.2438 15.30551225259457
NETSAT-3
1 46505U 20068V   25166.49083224  .00008401  00000-0  30047-3 0  9998
2 46505  97.8457 143.5805 0006932 177.2146 182.9132 15.29058949259415
NETSAT-1
1 46506U 20068W   25166.49643765  .00006856  00000-0  28392-3 0  9993
2 46506  97.8486 141.3702 0005946 192.9408 167.1676 15.24258465259260
NETSAT-2
1 46507U 20068X   25166.61538744  .00009436  00000-0  32586-3 0  9995
2 46507  97.8455 144.2675 0005005 188.0831 172.0328 15.30174971259412
ARKTIKA-M1
1 47719U 21016A   25166.13773845  .00000021  00000-0  00000-0 0  9999
2 47719  63.1486 107.9495 7109805 268.6438  16.5579  2.00593380 31423
SIMBA
1 47941U 21022K   25167.17952108  .00020369  00000-0  42151-3 0  9992
2 47941  97.4217  71.8640 0007111 291.8596  68.1896 15.45792850234219
UNISAT-7
1 47945U 21022P   25166.65587177  .00007186  00000-0  25388-3 0  9993
2 47945  97.4207  65.2768 0009769 310.1743  49.8641 15.29467988233643
GRBALPHA
1 47959U 21022AD  25160.45426279  .07940347  25506-5  90589-3 0  9995
2 47959  97.3899  75.6235 0011032 227.2558 132.7812 16.36806138232695
